#aV2022  4  6  0  0  0.00000000     288 DD+AD WGS84 FIT  NGA
## 2204 259200.00000000   300.00000000 59675 0.0000000000000
+   32     1  2  3  4  5  6  7  8  9 10 11 12 13 14 15 16 17
+         18 19 20 21 22 23 24 25 26 27 28 29 30 31 32  0  0
+          0  0  0  0  0  0  0  0  0  0  0  0  0  0  0  0  0
+          0  0  0  0  0  0  0  0  0  0  0  0  0  0  0  0  0
+          0  0  0  0  0  0  0  0  0  0  0  0  0  0  0  0  0
++         2  2  2  2  2  2  2  2  2  2  2  2  2  2  2  2  2
++         2  2  2  2  2  2  2  2  2  2  2  2  2  2  2  0  0
++         0  0  0  0  0  0  0  0  0  0  0  0  0  0  0  0  0
++         0  0  0  0  0  0  0  0  0  0  0  0  0  0  0  0  0
++         0  0  0  0  0  0  0  0  0  0  0  0  0  0  0  0  0
%c cc cc ccc ccc cccc cccc cccc cccc ccccc ccccc ccccc ccccc
%c cc cc ccc ccc cccc cccc cccc cccc ccccc ccccc ccccc ccccc
%f  0.0000000  0.000000000  0.00000000000  0.000000000000000
%f  0.0000000  0.000000000  0.00000000000  0.000000000000000
%i    0    0    0    0      0      0      0      0         0
%i    0    0    0    0      0      0      0      0         0
/*      NGA, ST. LOUIS,MO.                                  
/*   EPHEMERIS COMPUTED FROM 2 DAYS OF DATA                 
/*   EPOCHA v7 SMOOTHER                                     
/*   G2139 IERS2010 SATIGS SATAPC                           
*  2022  4  6 12 20  0.00000000
P  1 -17897.848408 -13633.621780 -14681.759585    391.337544                    
V  1  17808.463021   2535.544513 -24206.930380     -0.088236                    
P  2  -4636.781530  14891.435486  22167.835794   -652.945013                    
V  2 -26364.392491  -3241.200734  -3300.588178     -0.002555                    
P  3 -13015.140815 -21888.403134   7645.752888   -195.455328                    
V  3  -1087.119224  -9995.607304 -29943.981293     -0.156918                    
P  4  -8718.683137 -12762.373806  21600.553920   -178.097757                    
V  4  19001.777196 -19766.135011  -4092.673378      0.029920                    
P  5   4310.824693  25054.050688   7254.907991    -77.326503                    
V  5  -6085.828106  -7789.927939  30000.539129     -0.013542                    
P  6 -20118.264587   6798.286104  16070.663698    257.037250                    
V  6 -19547.666505  -5238.909256 -22267.674943      0.134254                    
P  7 -26205.770989  -5764.205013    673.899128    319.273238                    
V  7    902.124251  -2561.260381  31205.778874      0.013511                    
P  8   -161.158223 -19354.780897 -18063.377290    -62.811659                    
V  8  16057.456903 -16542.148413  17960.535115     -0.015902                    
P  9 -17021.777963  -2016.915727  20229.864742   -345.442730                    
V  9  15790.763904 -20494.426665  11176.060598      0.023517                    
P 10  14111.242822  -4745.635093 -21849.176351   -370.292366                    
V 10   9291.524394  26476.233236    -33.413124     -0.123861                    
P 11  -5390.904129  14251.431962  21751.618352    -45.479751                    
V 11 -26727.241657  -6972.609981  -2067.664662      0.076816                    
P 12   9510.092061  24453.643483   4262.633003   -196.199015                    
V 12   -876.604500   6155.753965 -31256.549086     -0.057863                    
P 13  -9456.935303  20741.443282 -13640.252118    289.426504                    
V 13 -14252.183737   9710.724269  25085.815371      0.065246                    
P 14 -14989.349101   3558.735495 -21642.597821   -100.411518                    
V 14  -7833.881687 -26355.174539   1013.492857     -0.029966                    
P 15   3498.916674  19230.449300 -18255.341621    -71.052556                    
V 15 -14291.961888  17606.236623  16490.154956      0.029436                    
P 16   1725.652809 -23868.423021  10733.282533   -488.831632                    
V 16   5938.455669  13150.217207  28041.221919     -0.039687                    
P 17 -21266.318472  12618.030397  -9334.742530    596.844823                    
V 17   7251.117316 -10310.844208 -29070.999304      0.048629                    
P 18  25967.015394   5840.021938    320.213866    202.202917                    
V 18   -908.499137   2254.698801  31915.792931     -0.092515                    
P 19 -20697.895407  16204.822900  -3228.584601    140.799547                    
V 19   1159.997704  -4329.256338 -31916.184768      0.049891                    
P 20  -1642.486278  21416.236295  15772.722911    515.953334                    
V 20 -11262.066484 -16652.080072  21205.016706     -0.001798                    
P 21  -8336.891707 -14928.301273 -19839.092821    160.186236                    
V 21  26416.903950   2129.393000 -11656.305617      0.003554                    
P 22  18793.855421 -18624.438643    366.776241    239.076348                    
V 22   2048.635067   2139.179274 -31886.105549      0.059589                    
P 23  16866.456908   7289.922229 -19224.124891    -12.848449                    
V 23   7422.090583  23208.375565  15224.505863     -0.029572                    
P 24  14598.797946  14531.659739 -17281.593451    260.050919                    
V 24 -21371.156561   -606.661113 -18478.720081     -0.046621                    
P 25  16242.121104  14806.336938  14819.209659    308.349242                    
V 25   4417.346078  18822.655706 -22926.281456      0.050645                    
P 26   8561.503544 -16150.176505  19078.861436    196.567597                    
V 26  10863.475862  22128.934048  14101.197879      0.028742                    
P 27  10464.079395 -22208.469759  -9813.621143    176.109895                    
V 27   9899.161482  -7658.697632  28873.180911      0.100393                    
P 28 -10951.143648  13026.386501 -19939.451991    373.534318                    
V 28  -7156.085474 -25414.704856 -12136.537006     -0.024025                    
P 29  15643.007815   4288.823250  20994.755431   -499.981016                    
V 29 -18554.457651  19212.244845   9817.898960     -0.043215                    
P 30 -25373.046517    713.502997  -8169.640769   -522.478165                    
V 30  -9554.339021  -5246.996394  28697.183623     -0.018290                    
P 31  18636.117885  -8290.122409  17127.673536   -172.229194                    
V 31  20977.654030   6254.592497 -19192.948609     -0.016599                    
P 32  20158.653794 -15306.732693  -7577.635905    -99.739680                    
V 32  -4218.934972   9380.926354 -29807.019014     -0.078625                    
EOF
